NORAD_CAT_ID,OBJECT_NAME,OBJECT_TYPE,EPOCH,MEAN_MOTION,ECCENTRICITY,INCLINATION,RA_OF_ASC_NODE,ARG_OF_PERICENTER,MEAN_ANOMALY,BSTAR,MEAN_MOTION_DOT,MEAN_MOTION_DDOT,TLE_LINE0,TLE_LINE1,TLE_LINE2,SEMIMAJOR_AXIS,PERIOD,APOGEE,PERIGEE,DECAYED
53150.0,STARLINK-4038,PAYLOAD,2023-08-29 14:58:21,15.0884724,0.0001356,53.2179,347.9248,94.8908,265.2239,7.0333e-05,8.32e-06,0.0,0 STARLINK-4038,1 53150U 22083U   23241.62386553  .00000832  00000-0  70333-4 0  9992,2 53150  53.2179 347.9248 0001356  94.8908 265.2239 15.08847240 62009,6917.858,95.437,540.661,538.785,0.0
53150.0,STARLINK-4038,PAYLOAD,2023-08-30 08:27:36,15.08844008,0.0001327,53.2176,344.6557,90.569,269.5454,-3.4355e-05,-8.35e-06,0.0,0 STARLINK-4038,1 53150U 22083U   23242.35251051 -.00000835  00000-0 -34355-4 0  9996,2 53150  53.2176 344.6557 0001327  90.5690 269.5454 15.08844008 62748,6917.868,95.437,540.651,538.815,0.0
53150.0,STARLINK-4038,PAYLOAD,2023-08-30 13:13:45,15.08847767,0.0001289,53.2174,343.7628,98.5718,261.542,-4.103e-06,-3.53e-06,0.0,0 STARLINK-4038,1 53150U 22083U   23242.55122584 -.00000353  00000-0 -41030-5 0  9990,2 53150  53.2174 343.7628 0001289  98.5718 261.5420 15.08847767 62145,6917.857,95.437,540.613,538.83,0.0
53150.0,STARLINK-4038,PAYLOAD,2023-08-31 09:53:47,15.088371,0.0001124,53.2179,339.8978,94.5387,265.5734,3.1381e-05,2.12e-06,0.0,0 STARLINK-4038,1 53150U 22083U   23243.41234982  .00000212  00000-0  31381-4 0  9991,2 53150  53.2179 339.8978 0001124  94.5387 265.5734 15.08837100 62906,6917.889,95.438,540.532,538.977,0.0
53150.0,STARLINK-4038,PAYLOAD,2023-09-01 06:33:50,15.0878635,0.0001471,53.2174,336.0377,68.3504,291.7644,0.00011644,1.563e-05,0.0,0 STARLINK-4038,1 53150U 22083U   23244.27350098  .00001563  00000-0  11644-3 0  9992,2 53150  53.2174 336.0377 0001471  68.3504 291.7644 15.08786350 63034,6918.044,95.441,540.927,538.892,0.0
53150.0,STARLINK-4038,PAYLOAD,2023-09-01 12:55:22,15.08797986,0.0001434,53.2175,334.8469,82.2209,277.8946,0.00023927,3.518e-05,0.0,0 STARLINK-4038,1 53150U 22083U   23244.53845384  .00003518  00000-0  23927-3 0  9997,2 53150  53.2175 334.8469 0001434  82.2209 277.8946 15.08797986 62440,6918.009,95.44,540.866,538.882,0.0
53150.0,STARLINK-4038,PAYLOAD,2023-09-01 17:41:28,15.08856246,0.0001199,53.2176,333.9513,83.417,276.6958,0.00014476,2.018e-05,0.0,0 STARLINK-4038,1 53150U 22083U   23244.73713467  .00002018  00000-0  14476-3 0  9998,2 53150  53.2176 333.9513 0001199  83.4170 276.6958 15.08856246 63108,6917.831,95.437,540.525,538.866,0.0
53150.0,STARLINK-4038,PAYLOAD,2023-09-02 09:35:21,15.08836891,0.0001668,53.2159,330.9784,89.415,270.7034,6.3228e-05,7.18e-06,0.0,0 STARLINK-4038,1 53150U 22083U   23245.39955125  .00000718  00000-0  63228-4 0  9995,2 53150  53.2159 330.9784 0001668  89.4150 270.7034 15.08836891 63206,6917.89,95.438,540.909,538.601,0.0
53150.0,STARLINK-4038,PAYLOAD,2023-09-02 12:46:06,15.0884568,0.0001457,53.2165,330.3832,92.173,267.9429,0.00012281,1.667e-05,0.0,0 STARLINK-4038,1 53150U 22083U   23245.53202364  .00001667  00000-0  12281-3 0  9997,2 53150  53.2165 330.3832 0001457  92.1730 267.9429 15.08845680 62595,6917.863,95.437,540.736,538.72,0.0
53150.0,STARLINK-4038,PAYLOAD,2023-09-03 06:15:21,15.08842705,0.0001559,53.2188,327.1116,91.8259,268.2911,1.2256e-05,-9.3e-07,0.0,0 STARLINK-4038,1 53150U 22083U   23246.26066805 -.00000093  00000-0  12256-4 0  9992,2 53150  53.2188 327.1116 0001559  91.8259 268.2911 15.08842705 63332,6917.872,95.437,540.816,538.659,0.0
53150.0,STARLINK-4038,PAYLOAD,2023-09-03 12:36:54,15.08844731,0.0001495,53.2174,325.9245,96.7976,263.3186,5.0428e-05,5.15e-06,0.0,0 STARLINK-4038,1 53150U 22083U   23246.52562523  .00000515  00000-0  50428-4 0  9990,2 53150  53.2174 325.9245 0001495  96.7976 263.3186 15.08844731 62740,6917.866,95.437,540.765,538.697,0.0
53150.0,STARLINK-4038,PAYLOAD,2023-09-04 04:30:45,15.08838387,0.0001329,53.2182,322.9532,89.9906,270.1239,-2.8126e-05,-7.35e-06,0.0,0 STARLINK-4038,1 53150U 22083U   23247.18803018 -.00000735  00000-0 -28126-4 0  9996,2 53150  53.2182 322.9532 0001329  89.9906 270.1239 15.08838387 62844,6917.885,95.438,540.67,538.831,0.0
53150.0,STARLINK-4038,PAYLOAD,2023-09-04 14:03:05,15.08833553,9.06e-05,53.2178,321.1639,77.5822,282.5271,-7.6845e-05,-1.51e-05,0.0,0 STARLINK-4038,1 53150U 22083U   23247.58547908 -.00001510  00000-0 -76845-4 0  9996,2 53150  53.2178 321.1639 0000906  77.5822 282.5271 15.08833553 63538,6917.9,95.438,540.392,539.138,0.0
53150.0,STARLINK-4038,PAYLOAD,2023-09-05 13:53:52,15.08840362,0.0001445,53.2178,316.7026,83.6658,276.4498,4.6181e-05,4.47e-06,0.0,0 STARLINK-4038,1 53150U 22083U   23248.57907705  .00000447  00000-0  46181-4 0  9997,2 53150  53.2178 316.7026 0001445  83.6658 276.4498 15.08840362 63058,6917.879,95.438,540.744,538.745,0.0
53150.0,STARLINK-4038,PAYLOAD,2023-09-05 21:50:47,15.08846075,0.0001369,53.2174,315.2159,81.8962,278.2185,4.4491e-05,4.2e-06,0.0,0 STARLINK-4038,1 53150U 22083U   23248.91027319  .00000420  00000-0  44491-4 0  9992,2 53150  53.2174 315.2159 0001369  81.8962 278.2185 15.08846075 63104,6917.862,95.437,540.674,538.78,0.0
53150.0,STARLINK-4038,PAYLOAD,2023-09-07 08:49:16,15.08852399,0.0001715,53.2169,308.6725,87.9177,272.2012,-6.3693e-05,-1.302e-05,0.0,0 STARLINK-4038,1 53150U 22083U   23250.36755547 -.00001302  00000-0 -63693-4 0  9992,2 53150  53.2169 308.6725 0001715  87.9177 272.2012 15.08852399 63955,6917.842,95.437,540.894,538.521,0.0
53150.0,STARLINK-4038,PAYLOAD,2023-09-07 12:00:03,15.08843473,0.0001574,53.2168,308.0801,82.5554,277.5617,7.6955e-06,-1.66e-06,0.0,0 STARLINK-4038,1 53150U 22083U   23250.50003738 -.00000166  00000-0  76955-5 0  9998,2 53150  53.2168 308.0801 0001574  82.5554 277.5617 15.08843473 63341,6917.87,95.437,540.824,538.646,0.0
53150.0,STARLINK-4038,PAYLOAD,2023-09-07 21:32:22,15.08842709,0.0001621,53.217,306.2959,80.9748,279.1428,5.7423e-06,-1.97e-06,0.0,0 STARLINK-4038,1 53150U 22083U   23250.89747740 -.00000197  00000-0  57423-5 0  9991,2 53150  53.2170 306.2959 0001621  80.9748 279.1428 15.08842709 64034,6917.872,95.437,540.858,538.616,0.0
53150.0,STARLINK-4038,PAYLOAD,2023-09-08 10:15:27,15.08837355,0.000162,53.2176,303.9165,89.5367,270.5811,5.1651e-05,5.34e-06,0.0,0 STARLINK-4038,1 53150U 22083U   23251.42739691  .00000534  00000-0  51651-4 0  9997,2 53150  53.2176 303.9165 0001620  89.5367 270.5811 15.08837355 63484,6917.888,95.438,540.874,538.633,0.0
53150.0,STARLINK-4038,PAYLOAD,2023-09-08 15:01:36,15.08841042,0.0001615,53.2173,303.0233,95.3063,264.8113,7.0097e-05,8.28e-06,0.0,0 STARLINK-4038,1 53150U 22083U   23251.62611398  .00000828  00000-0  70097-4 0  9993,2 53150  53.2173 303.0233 0001615  95.3063 264.8113 15.08841042 63513,6917.877,95.437,540.859,538.625,0.0
53150.0,STARLINK-4038,PAYLOAD,2023-09-08 22:58:32,15.08830347,0.0001622,53.2169,301.5358,100.267,259.8505,8.3512e-05,1.041e-05,0.0,0 STARLINK-4038,1 53150U 22083U   23251.95732006  .00001041  00000-0  83512-4 0  9993,2 53150  53.2169 301.5358 0001622 100.2670 259.8505 15.08830347 64197,6917.91,95.438,540.897,538.653,0.0
53150.0,STARLINK-4038,PAYLOAD,2023-09-09 10:06:14,15.08841118,0.0001494,53.2171,299.4566,89.0058,271.1106,6.7303e-05,7.83e-06,0.0,0 STARLINK-4038,1 53150U 22083U   23252.42099544  .00000783  00000-0  67303-4 0  9991,2 53150  53.2171 299.4566 0001494  89.0058 271.1106 15.08841118 64267,6917.877,95.437,540.776,538.708,0.0
53150.0,STARLINK-4038,PAYLOAD,2023-09-10 09:57:01,15.08840817,0.0001499,53.217,294.9971,89.1583,270.9581,6.4789e-05,7.43e-06,0.0,0 STARLINK-4038,1 53150U 22083U   23253.41459790  .00000743  00000-0  64789-4 0  9995,2 53150  53.2170 294.9971 0001499  89.1583 270.9581 15.08840817 63780,6917.878,95.438,540.78,538.706,0.0
53150.0,STARLINK-4038,PAYLOAD,2023-09-10 19:29:20,15.08837446,0.0001503,53.217,293.2136,88.2935,271.8229,4.9431e-05,4.99e-06,0.0,0 STARLINK-4038,1 53150U 22083U   23253.81204125  .00000499  00000-0  49431-4 0  9994,2 53150  53.2170 293.2136 0001503  88.2935 271.8229 15.08837446 64472,6917.888,95.438,540.793,538.713,0.0
53150.0,STARLINK-4038,PAYLOAD,2023-09-11 08:12:26,15.08832162,0.000156,53.2177,290.8353,93.6182,266.4988,-1.6198e-05,-5.46e-06,0.0,0 STARLINK-4038,1 53150U 22083U   23254.34196852 -.00000546  00000-0 -16198-4 0  9999,2 53150  53.2177 290.8353 0001560  93.6182 266.4988 15.08832162 64551,6917.904,95.438,540.849,538.69,0.0
53150.0,STARLINK-4038,PAYLOAD,2023-09-11 12:58:36,15.08758759,0.0001961,53.2172,289.9418,92.2507,267.871,0.0010429,0.00016312,0.0,0 STARLINK-4038,1 53150U 22083U   23254.54070556  .00016312  00000-0  10429-2 0  9998,2 53150  53.2172 289.9418 0001961  92.2507 267.8710 15.08758759 63958,6918.129,95.443,541.35,538.637,0.0
53150.0,STARLINK-4038,PAYLOAD,2023-09-12 01:41:40,15.08841186,0.0001515,53.2173,287.5619,89.2316,270.885,4.8612e-05,4.86e-06,0.0,0 STARLINK-4038,1 53150U 22083U   23255.07060276  .00000486  00000-0  48612-4 0  9997,2 53150  53.2173 287.5619 0001515  89.2316 270.8850 15.08841186 64660,6917.877,95.437,540.79,538.694,0.0
53150.0,STARLINK-4038,PAYLOAD,2023-09-12 11:13:58,15.08848404,0.0001516,53.2171,285.7777,88.4379,271.6787,0.0001067,1.411e-05,0.0,0 STARLINK-4038,1 53150U 22083U   23255.46803591  .00001411  00000-0  10670-3 0  9996,2 53150  53.2171 285.7777 0001516  88.4379 271.6787 15.08848404 64099,6917.855,95.437,540.768,538.671,0.0
53150.0,STARLINK-4038,PAYLOAD,2023-09-13 09:29:22,15.08844399,0.0001753,53.2178,281.6135,88.4993,271.62,0.00014207,1.974e-05,0.0,0 STARLINK-4038,1 53150U 22083U   23256.39539864  .00001974  00000-0  14207-3 0  9992,2 53150  53.2178 281.6135 0001753  88.4993 271.6200 15.08844399 64868,6917.867,95.437,540.945,538.519,0.0
53150.0,STARLINK-4038,PAYLOAD,2023-09-13 11:04:45,15.08850662,0.0001736,53.2179,281.3112,109.291,250.827,0.00014227,1.978e-05,0.0,0 STARLINK-4038,1 53150U 22083U   23256.46163247  .00001978  00000-0  14227-3 0  9994,2 53150  53.2179 281.3112 0001736 109.2910 250.8270 15.08850662 64241,6917.848,95.437,540.914,538.512,0.0
